GLOBALSTAR M067 [+]     
1 32263U 07048A   23325.86957979 -.00000081  00000+0  12452-3 0  9996
2 32263  51.9729 273.4495 0000471 146.5023 243.6544 12.40634542738320
GLOBALSTAR M070 [+]     
1 32264U 07048B   23325.63038097 -.00000104  00000+0 -29572-5 0  9993
2 32264  51.9754  75.7308 0000400 136.8299 327.2652 12.62281913741231
GLOBALSTAR M066 [+]     
1 32265U 07048C   23325.36104536 -.00000078  00000+0  14488-3 0  9993
2 32265  51.9683 298.6023 0000954  54.5736  96.7727 12.62276394743464
GLOBALSTAR M068 [-]     
1 32266U 07048D   23325.77462486 -.00000064  00000+0  22022-3 0  9998
2 32266  51.9885 250.1306 0001019   7.3215  11.1110 12.62771726745117
GLOBALSTAR M079 [+]     
1 37188U 10054A   23325.74550527 -.00000097  00000+0  37778-4 0  9999
2 37188  52.0035  85.4322 0001014 115.4590  32.6495 12.62269955604038
GLOBALSTAR M074 [+]     
1 37189U 10054B   23325.85002813 -.00000102  00000+0  12380-4 0  9991
2 37189  52.0013  84.5244 0000786 116.7725  27.1750 12.62271913604655
GLOBALSTAR M076 [+]     
1 37190U 10054C   23325.80083163 -.00000100  00000+0  20179-4 0  9998
2 37190  52.0025  84.7950 0001170 140.2691  18.7296 12.62263820604365
GLOBALSTAR M077 [+]     
1 37191U 10054D   23325.53802059 -.00000096  00000+0  41486-4 0  9990
2 37191  52.0091  42.2882 0000481 126.0907 337.3927 12.62266547604706
